{
  "type": "FeatureCollection",
  "features": [
    {
      "type": "Feature",
      "properties": {
        "norad_id": 66654,
        "name": "JACK E",
        "group": "last-30-days",
        "lat": 65.48796088473557,
        "lon": -106.68747932704466,
        "alt_km": 592.84363596824,
        "timestamp": "2025-12-09T09:46:46.423371+00:00",
        "meta_object_name": "JACK E",
        "meta_object_id": "2025-274E",
        "meta_epoch": "2025-12-08T18:59:44.839680",
        "meta_mean_motion": 14.9204918,
        "meta_eccentricity": 0.00118714,
        "meta_inclination": 97.7389,
        "meta_ra_of_asc_node": 270.0592,
        "meta_arg_of_pericenter": 270.3927,
        "meta_mean_anomaly": 89.5932,
        "meta_ephemeris_type": 0,
        "meta_classification_type": "U",
        "meta_norad_cat_id": 66654,
        "meta_element_set_no": 999,
        "meta_rev_at_epoch": 181,
        "meta_bstar": 0.00047984468,
        "meta_mean_motion_dot": 4.821e-05,
        "meta_mean_motion_ddot": 0,
        "tle_line1": "1 66654U 25274E   25342.79149120  .00004821  00000+0  47984-3 0  9995",
        "tle_line2": "2 66654  97.7389 270.0592 0011871 270.3927  89.5932 14.92049180  1819"
      },
      "geometry": {
        "type": "Point",
        "coordinates": [
          -106.68747932704466,
          65.48796088473557
        ]
      }
    },
    {
      "type": "Feature",
      "properties": {
        "norad_id": 66655,
        "name": "2025-274F",
        "group": "last-30-days",
        "lat": 75.24378420002871,
        "lon": -120.39024068621124,
        "alt_km": 584.5839989985197,
        "timestamp": "2025-12-09T09:46:46.423381+00:00",
        "meta_object_name": "2025-274F",
        "meta_object_id": "2025-274F",
        "meta_epoch": "2025-12-08T18:57:10.718496",
        "meta_mean_motion": 14.92504145,
        "meta_eccentricity": 0.00054909,
        "meta_inclination": 97.7329,
        "meta_ra_of_asc_node": 270.0601,
        "meta_arg_of_pericenter": 323.8556,
        "meta_mean_anomaly": 36.2292,
        "meta_ephemeris_type": 0,
        "meta_classification_type": "U",
        "meta_norad_cat_id": 66655,
        "meta_element_set_no": 999,
        "meta_rev_at_epoch": 181,
        "meta_bstar": 0.001516128,
        "meta_mean_motion_dot": 0.00015539,
        "meta_mean_motion_ddot": 0,
        "tle_line1": "1 66655U 25274F   25342.78970739  .00015539  00000+0  15161-2 0  9992",
        "tle_line2": "2 66655  97.7329 270.0601 0005490 323.8556  36.2292 14.92504145  1812"
      },
      "geometry": {
        "type": "Point",
        "coordinates": [
          -120.39024068621124,
          75.24378420002871
        ]
      }
    },
    {
      "type": "Feature",
      "properties": {
        "norad_id": 66656,
        "name": "2025-274G",
        "group": "last-30-days",
        "lat": 73.17437318278573,
        "lon": -116.0558485133968,
        "alt_km": 592.3380288986646,
        "timestamp": "2025-12-09T09:46:46.423392+00:00",
        "meta_object_name": "2025-274G",
        "meta_object_id": "2025-274G",
        "meta_epoch": "2025-12-08T18:57:37.180224",
        "meta_mean_motion": 14.92237325,
        "meta_eccentricity": 0.00124924,
        "meta_inclination": 97.7387,
        "meta_ra_of_asc_node": 270.0607,
        "meta_arg_of_pericenter": 272.2172,
        "meta_mean_anomaly": 87.7617,
        "meta_ephemeris_type": 0,
        "meta_classification_type": "U",
        "meta_norad_cat_id": 66656,
        "meta_element_set_no": 999,
        "meta_rev_at_epoch": 181,
        "meta_bstar": 0.00050366905,
        "meta_mean_motion_dot": 5.088e-05,
        "meta_mean_motion_ddot": 0,
        "tle_line1": "1 66656U 25274G   25342.79001366  .00005088  00000+0  50367-3 0  9991",
        "tle_line2": "2 66656  97.7387 270.0607 0012492 272.2172  87.7617 14.92237325  1819"
      },
      "geometry": {
        "type": "Point",
        "coordinates": [
          -116.0558485133968,
          73.17437318278573
        ]
      }
    },
    {
      "type": "Feature",
      "properties": {
        "norad_id": 66657,
        "name": "SPIRONE",
        "group": "last-30-days",
        "lat": 79.73017417894798,
        "lon": -137.96497419847458,
        "alt_km": 589.9145350290364,
        "timestamp": "2025-12-09T09:46:46.423402+00:00",
        "meta_object_name": "SPIRONE",
        "meta_object_id": "2025-274H",
        "meta_epoch": "2025-12-08T20:32:05.028864",
        "meta_mean_motion": 14.92414576,
        "meta_eccentricity": 0.0010976,
        "meta_inclination": 97.7386,
        "meta_ra_of_asc_node": 270.128,
        "meta_arg_of_pericenter": 290.7866,
        "meta_mean_anomaly": 69.2177,
        "meta_ephemeris_type": 0,
        "meta_classification_type": "U",
        "meta_norad_cat_id": 66657,
        "meta_element_set_no": 999,
        "meta_rev_at_epoch": 182,
        "meta_bstar": 0.00036917,
        "meta_mean_motion_dot": 3.729e-05,
        "meta_mean_motion_ddot": 0,
        "tle_line1": "1 66657U 25274H   25342.85561376  .00003729  00000+0  36917-3 0  9996",
        "tle_line2": "2 66657  97.7386 270.1280 0010976 290.7866  69.2177 14.92414576  1829"
      },
      "geometry": {
        "type": "Point",
        "coordinates": [
          -137.96497419847458,
          79.73017417894798
        ]
      }
    },
    {
      "type": "Feature",
      "properties": {
        "norad_id": 66658,
        "name": "2025-274J",
        "group": "last-30-days",
        "lat": 82.15781664682787,
        "lon": 171.53273745798535,
        "alt_km": 589.9066319361564,
        "timestamp": "2025-12-09T09:46:46.423413+00:00",
        "meta_object_name": "2025-274J",
        "meta_object_id": "2025-274J",
        "meta_epoch": "2025-12-08T18:53:29.669280",
        "meta_mean_motion": 14.92588768,
        "meta_eccentricity": 0.00115527,
        "meta_inclination": 97.7386,
        "meta_ra_of_asc_node": 270.0641,
        "meta_arg_of_pericenter": 294.1578,
        "meta_mean_anomaly": 65.8433,
        "meta_ephemeris_type": 0,
        "meta_classification_type": "U",
        "meta_norad_cat_id": 66658,
        "meta_element_set_no": 999,
        "meta_rev_at_epoch": 181,
        "meta_bstar": 0.00045753621,
        "meta_mean_motion_dot": 4.657e-05,
        "meta_mean_motion_ddot": 0,
        "tle_line1": "1 66658U 25274J   25342.78714895  .00004657  00000+0  45754-3 0  9995",
        "tle_line2": "2 66658  97.7386 270.0641 0011552 294.1578  65.8433 14.92588768  1810"
      },
      "geometry": {
        "type": "Point",
        "coordinates": [
          171.53273745798535,
          82.15781664682787
        ]
      }
    },
    {
      "type": "Feature",
      "properties": {
        "norad_id": 66659,
        "name": "JACK K",
        "group": "last-30-days",
        "lat": 77.57805473869519,
        "lon": 128.80284948831724,
        "alt_km": 590.341674968804,
        "timestamp": "2025-12-09T09:46:46.423423+00:00",
        "meta_object_name": "JACK K",
        "meta_object_id": "2025-274K",
        "meta_epoch": "2025-12-08T20:27:50.866848",
        "meta_mean_motion": 14.92772766,
        "meta_eccentricity": 0.0012296,
        "meta_inclination": 97.7388,
        "meta_ra_of_asc_node": 270.1324,
        "meta_arg_of_pericenter": 295.0726,
        "meta_mean_anomaly": 64.9216,
        "meta_ephemeris_type": 0,
        "meta_classification_type": "U",
        "meta_norad_cat_id": 66659,
        "meta_element_set_no": 999,
        "meta_rev_at_epoch": 182,
        "meta_bstar": 0.00033526,
        "meta_mean_motion_dot": 3.413e-05,
        "meta_mean_motion_ddot": 0,
        "tle_line1": "1 66659U 25274K   25342.85267207  .00003413  00000+0  33526-3 0  9997",
        "tle_line2": "2 66659  97.7388 270.1324 0012296 295.0726  64.9216 14.92772766  1826"
      },
      "geometry": {
        "type": "Point",
        "coordinates": [
          128.80284948831724,
          77.57805473869519
        ]
      }
    },
    {
      "type": "Feature",
      "properties": {
        "norad_id": 66660,
        "name": "K-HERO",
        "group": "last-30-days",
        "lat": 71.73929930456478,
        "lon": 115.02167993236131,
        "alt_km": 590.8260870312115,
        "timestamp": "2025-12-09T09:46:46.423437+00:00",
        "meta_object_name": "K-HERO",
        "meta_object_id": "2025-274L",
        "meta_epoch": "2025-12-08T20:26:05.496864",
        "meta_mean_motion": 14.92924014,
        "meta_eccentricity": 0.0012908,
        "meta_inclination": 97.7392,
        "meta_ra_of_asc_node": 270.1344,
        "meta_arg_of_pericenter": 295.6722,
        "meta_mean_anomaly": 64.3164,
        "meta_ephemeris_type": 0,
        "meta_classification_type": "U",
        "meta_norad_cat_id": 66660,
        "meta_element_set_no": 999,
        "meta_rev_at_epoch": 182,
        "meta_bstar": 0.00037508,
        "meta_mean_motion_dot": 3.841e-05,
        "meta_mean_motion_ddot": 0,
        "tle_line1": "1 66660U 25274L   25342.85145251  .00003841  00000+0  37508-3 0  9992",
        "tle_line2": "2 66660  97.7392 270.1344 0012908 295.6722  64.3164 14.92924014  1828"
      },
      "geometry": {
        "type": "Point",
        "coordinates": [
          115.02167993236131,
          71.73929930456478
        ]
      }
    }
  ]
}